NORAD_CAT_ID,OBJECT_NAME,OBJECT_TYPE,EPOCH,MEAN_MOTION,ECCENTRICITY,INCLINATION,RA_OF_ASC_NODE,ARG_OF_PERICENTER,MEAN_ANOMALY,BSTAR,MEAN_MOTION_DOT,MEAN_MOTION_DDOT,TLE_LINE0,TLE_LINE1,TLE_LINE2,SEMIMAJOR_AXIS,PERIOD,APOGEE,PERIGEE,DECAYED
52694.0,STARLINK-4072,PAYLOAD,2023-09-25 03:48:17,15.08851242,0.0001513,53.2172,208.8075,87.5289,272.5876,4.5084e-05,4.3e-06,0.0,0 STARLINK-4072,1 52694U 22053AQ  23268.15853216  .00000430  00000-0  45084-4 0  9992,2 52694  53.2172 208.8075 0001513  87.5289 272.5876 15.08851242 75406,6917.846,95.437,540.758,538.664,0.0
52694.0,STARLINK-4072,PAYLOAD,2023-09-25 13:20:35,15.08850017,0.0001406,53.2168,207.0231,85.6031,274.5122,0.00014675,2.049e-05,0.0,0 STARLINK-4072,1 52694U 22053AQ  23268.55596977  .00002049  00000-0  14675-3 0  9993,2 52694  53.2168 207.0231 0001406  85.6031 274.5122 15.08850017 75866,6917.85,95.437,540.687,538.742,0.0
52694.0,STARLINK-4072,PAYLOAD,2023-09-26 05:14:26,15.08861817,0.0001483,53.2161,204.0455,88.5405,271.5757,0.00034576,5.222e-05,0.0,0 STARLINK-4072,1 52694U 22053AQ  23269.21836250  .00005222  00000-0  34576-3 0  9996,2 52694  53.2161 204.0455 0001483  88.5405 271.5757 15.08861817 75564,6917.814,95.436,540.705,538.653,0.0
52694.0,STARLINK-4072,PAYLOAD,2023-09-26 19:32:56,15.0883064,0.0001062,53.2162,201.3708,91.3376,268.7738,-0.00015456,-2.746e-05,0.0,0 STARLINK-4072,1 52694U 22053AQ  23269.81453879 -.00002746  00000-0 -15456-3 0  9990,2 52694  53.2162 201.3708 0001062  91.3376 268.7738 15.08830640 76050,6917.909,95.438,540.509,539.039,0.0
52694.0,STARLINK-4072,PAYLOAD,2023-09-27 01:54:28,15.08834659,0.0001778,53.2161,200.1813,96.7961,263.3233,-9.9985e-05,-1.879e-05,0.0,0 STARLINK-4072,1 52694U 22053AQ  23270.07949675 -.00001879  00000-0 -99985-4 0  9990,2 52694  53.2161 200.1813 0001778  96.7961 263.3233 15.08834659 75690,6917.897,95.438,540.992,538.532,0.0
52694.0,STARLINK-4072,PAYLOAD,2023-09-27 05:05:14,15.08838351,0.000171,53.2155,199.5851,102.5512,257.5672,-1.4352e-05,-5.16e-06,0.0,0 STARLINK-4072,1 52694U 22053AQ  23270.21197506 -.00000516  00000-0 -14352-4 0  9996,2 52694  53.2155 199.5851 0001710 102.5512 257.5672 15.08838351 76113,6917.885,95.438,540.933,538.567,0.0
52694.0,STARLINK-4072,PAYLOAD,2023-09-27 13:02:10,15.08823039,0.0001734,53.2165,198.0967,107.3499,252.7683,-0.00022682,-3.894e-05,0.0,0 STARLINK-4072,1 52694U 22053AQ  23270.54318224 -.00003894  00000-0 -22682-3 0  9990,2 52694  53.2165 198.0967 0001734 107.3499 252.7683 15.08823039 75765,6917.932,95.439,540.997,538.598,0.0
52694.0,STARLINK-4072,PAYLOAD,2023-09-28 04:56:02,15.08824604,0.0001774,53.2161,195.1226,109.6806,250.4377,-3.3702e-05,-8.24e-06,0.0,0 STARLINK-4072,1 52694U 22053AQ  23271.20558993 -.00000824  00000-0 -33702-4 0  9999,2 52694  53.2161 195.1226 0001774 109.6806 250.4377 15.08824604 76268,6917.927,95.439,541.02,538.565,0.0
52694.0,STARLINK-4072,PAYLOAD,2023-09-28 22:25:17,15.08846747,0.0001855,53.2167,191.8529,116.119,243.9993,0.00053122,8.178e-05,0.0,0 STARLINK-4072,1 52694U 22053AQ  23271.93422966  .00008178  00000-0  53122-3 0  9994,2 52694  53.2167 191.8529 0001855 116.1190 243.9993 15.08846747 76377,6917.86,95.437,541.008,538.442,0.0
52694.0,STARLINK-4072,PAYLOAD,2023-09-29 04:46:49,15.08854493,0.0001839,53.2167,190.664,115.194,244.9243,0.00072381,0.00011255,0.0,0 STARLINK-4072,1 52694U 22053AQ  23272.19918840  .00011255  00000-0  72381-3 0  9992,2 52694  53.2167 190.6640 0001839 115.1940 244.9243 15.08854493 76413,6917.836,95.437,540.973,538.429,0.0
52694.0,STARLINK-4072,PAYLOAD,2023-09-30 01:26:49,15.08865002,0.000125,53.216,186.7999,92.2336,267.88,0.00059456,9.194e-05,0.0,0 STARLINK-4072,1 52694U 22053AQ  23273.06030075  .00009194  00000-0  59456-3 0  9991,2 52694  53.2160 186.7999 0001250  92.2336 267.8800 15.08865002 76141,6917.804,95.436,540.534,538.804,0.0
52694.0,STARLINK-4072,PAYLOAD,2023-09-30 10:59:08,15.08857723,0.0001169,53.2161,185.0155,81.869,278.2435,0.00044531,6.81e-05,0.0,0 STARLINK-4072,1 52694U 22053AQ  23273.45773685  .00006810  00000-0  44531-3 0  9995,2 52694  53.2161 185.0155 0001169  81.8690 278.2435 15.08857723 76202,6917.826,95.436,540.5,538.883,0.0
52694.0,STARLINK-4072,PAYLOAD,2023-10-01 01:17:37,15.08855819,0.0001362,53.2153,182.3422,78.7564,281.3581,0.0019028,0.00030138,0.0,0 STARLINK-4072,1 52694U 22053AQ  23274.05390051  .00030138  00000-0  19028-2 0  9996,2 52694  53.2153 182.3422 0001362  78.7564 281.3581 15.08855819 76290,6917.832,95.437,540.639,538.755,0.0
52694.0,STARLINK-4072,PAYLOAD,2023-10-01 10:49:55,15.08854798,0.0001966,53.2157,180.5556,84.3511,275.7705,0.0008949,0.00013989,0.0,0 STARLINK-4072,1 52694U 22053AQ  23274.45134124  .00013989  00000-0  89490-3 0  9993,2 52694  53.2157 180.5556 0001966  84.3511 275.7705 15.08854798 76354,6917.835,95.437,541.06,538.34,0.0
52694.0,STARLINK-4072,PAYLOAD,2023-10-01 21:57:37,15.08845721,0.0001235,53.2152,178.4753,96.3211,263.7921,0.00095444,0.00014937,0.0,0 STARLINK-4072,1 52694U 22053AQ  23274.91501916  .00014937  00000-0  95444-3 0  9991,2 52694  53.2152 178.4753 0001235  96.3211 263.7921 15.08845721 76828,6917.863,95.437,540.582,538.874,0.0
52694.0,STARLINK-4072,PAYLOAD,2023-10-02 01:08:23,15.08848835,0.000152,53.2148,177.8793,84.4891,275.6274,0.00030501,4.571e-05,0.0,0 STARLINK-4072,1 52694U 22053AQ  23275.04749825  .00004571  00000-0  30501-3 0  9995,2 52694  53.2148 177.8793 0001520  84.4891 275.6274 15.08848835 76449,6917.853,95.437,540.77,538.667,0.0
52694.0,STARLINK-4072,PAYLOAD,2023-10-02 10:40:42,15.08843377,0.0001429,53.2143,176.095,80.9161,279.1993,0.0001645,2.331e-05,0.0,0 STARLINK-4072,1 52694U 22053AQ  23275.44494009  .00002331  00000-0  16450-3 0  9999,2 52694  53.2143 176.0950 0001429  80.9161 279.1993 15.08843377 76509,6917.87,95.437,540.724,538.747,0.0
52694.0,STARLINK-4072,PAYLOAD,2023-10-03 10:31:30,15.08830784,0.0001633,53.2147,171.6349,91.6655,268.4524,0.00044311,6.769e-05,0.0,0 STARLINK-4072,1 52694U 22053AQ  23276.43854955  .00006769  00000-0  44311-3 0  9995,2 52694  53.2147 171.6349 0001633  91.6655 268.4524 15.08830784 76655,6917.909,95.438,540.903,538.644,0.0
52694.0,STARLINK-4072,PAYLOAD,2023-10-03 21:39:12,15.08839567,0.0001747,53.2147,169.5516,91.0975,269.0218,0.00039541,6.01e-05,0.0,0 STARLINK-4072,1 52694U 22053AQ  23276.90223114  .00006010  00000-0  39541-3 0  9992,2 52694  53.2147 169.5516 0001747  91.0975 269.0218 15.08839567 77120,6917.882,95.438,540.955,538.538,0.0
52694.0,STARLINK-4072,PAYLOAD,2023-10-04 10:22:17,15.08842099,0.0001778,53.2141,167.1735,90.2788,269.8408,0.0003998,6.081e-05,0.0,0 STARLINK-4072,1 52694U 22053AQ  23277.43215107  .00006081  00000-0  39980-3 0  9999,2 52694  53.2141 167.1735 0001778  90.2788 269.8408 15.08842099 77200,6917.874,95.437,540.969,538.509,0.0
52694.0,STARLINK-4072,PAYLOAD,2023-10-04 21:29:59,15.08858457,0.0001578,53.2145,165.0927,88.7444,271.3729,0.00072264,0.00011237,0.0,0 STARLINK-4072,1 52694U 22053AQ  23277.89582633  .00011237  00000-0  72264-3 0  9991,2 52694  53.2145 165.0927 0001578  88.7444 271.3729 15.08858457 77279,6917.824,95.436,540.781,538.597,0.0
52694.0,STARLINK-4072,PAYLOAD,2023-10-04 23:05:22,15.088612,0.0001639,53.2151,164.7943,90.6032,269.5148,0.00080081,0.00012487,0.0,0 STARLINK-4072,1 52694U 22053AQ  23277.96206522  .00012487  00000-0  80081-3 0  9993,2 52694  53.2151 164.7943 0001639  90.6032 269.5148 15.08861200 76883,6917.816,95.436,540.814,538.547,0.0
52694.0,STARLINK-4072,PAYLOAD,2023-10-05 19:45:23,15.08858309,0.0001155,53.2154,160.9276,90.3061,269.8063,0.0011827,0.00018594,0.0,0 STARLINK-4072,1 52694U 22053AQ  23278.82318636  .00018594  00000-0  11827-2 0  9995,2 52694  53.2154 160.9276 0001155  90.3061 269.8063 15.08858309 77016,6917.824,95.436,540.488,538.89,0.0
52694.0,STARLINK-4072,PAYLOAD,2023-10-05 21:20:46,15.08853911,0.0001356,53.215,160.6303,108.4515,251.6625,0.0013793,0.0002174,0.0,0 STARLINK-4072,1 52694U 22053AQ  23278.88942640  .00021740  00000-0  13793-2 0  9990,2 52694  53.2150 160.6303 0001356 108.4515 251.6625 15.08853911 77420,6917.838,95.437,540.641,538.765,0.0
52694.0,STARLINK-4072,PAYLOAD,2023-10-05 22:56:09,15.08848664,0.0001312,53.2149,160.333,108.5956,251.5179,0.0009889,0.00015489,0.0,0 STARLINK-4072,1 52694U 22053AQ  23278.95566624  .00015489  00000-0  98890-3 0  9997,2 52694  53.2149 160.3330 0001312 108.5956 251.5179 15.08848664 77036,6917.854,95.437,540.627,538.811,0.0
52694.0,STARLINK-4072,PAYLOAD,2023-10-06 22:46:57,15.08833698,0.0001355,53.2159,155.8776,94.3611,265.7536,0.00038772,5.887e-05,0.0,0 STARLINK-4072,1 52694U 22053AQ  23279.94927510  .00005887  00000-0  38772-3 0  9996,2 52694  53.2159 155.8776 0001355  94.3611 265.7536 15.08833698 77582,6917.9,95.438,540.702,538.827,0.0
52694.0,STARLINK-4072,PAYLOAD,2023-10-07 14:40:48,15.08839387,0.0001164,53.2154,152.9017,83.2943,276.8182,0.00034516,5.21e-05,0.0,0 STARLINK-4072,1 52694U 22053AQ  23280.61167747  .00005210  00000-0  34516-3 0  9992,2 52694  53.2154 152.9017 0001164  83.2943 276.8182 15.08839387 77688,6917.882,95.438,540.553,538.942,0.0
52694.0,STARLINK-4072,PAYLOAD,2023-10-07 21:02:21,15.08844253,0.00012,53.2154,151.7138,89.7919,270.3211,0.00042221,6.439e-05,0.0,0 STARLINK-4072,1 52694U 22053AQ  23280.87663610  .00006439  00000-0  42221-3 0  9996,2 52694  53.2154 151.7138 0001200  89.7919 270.3211 15.08844253 77729,6917.867,95.437,540.563,538.902,0.0
52694.0,STARLINK-4072,PAYLOAD,2023-10-08 01:48:30,15.08857778,0.0001163,53.2154,150.8197,79.9082,280.2041,0.00075549,0.00011762,0.0,0 STARLINK-4072,1 52694U 22053AQ  23281.07535234  .00011762  00000-0  75549-3 0  9993,2 52694  53.2154 150.8197 0001163  79.9082 280.2041 15.08857778 77350,6917.826,95.436,540.496,538.887,0.0
52694.0,STARLINK-4072,PAYLOAD,2023-10-08 08:10:02,15.08850671,0.0001214,53.2156,149.6279,90.0293,270.0838,0.00044273,6.767e-05,0.0,0 STARLINK-4072,1 52694U 22053AQ  23281.34031249  .00006767  00000-0  44273-3 0  9999,2 52694  53.2156 149.6279 0001214  90.0293 270.0838 15.08850671 77394,6917.848,95.437,540.553,538.873,0.0
